{
    "links": {
        "self": "http://www.neowsapp.com/rest/v1/neo/3323885?api_key=iIulBulltgU6a56xZRHN4H3l9WmuAYTsLGpBGhQ2"
    },
    "id": "3323885",
    "neo_reference_id": "3323885",
    "name": "(2006 DL)",
    "designation": "2006 DL",
    "nasa_jpl_url": "http://ssd.jpl.nasa.gov/sbdb.cgi?sstr=3323885",
    "absolute_magnitude_h": 22.5,
    "estimated_diameter": {
        "kilometers": {
            "estimated_diameter_min": 0.0840533402,
            "estimated_diameter_max": 0.1879489824
        },
        "meters": {
            "estimated_diameter_min": 84.0533402073,
            "estimated_diameter_max": 187.9489824394
        },
        "miles": {
            "estimated_diameter_min": 0.0522283081,
            "estimated_diameter_max": 0.1167860472
        },
        "feet": {
            "estimated_diameter_min": 275.7655606856,
            "estimated_diameter_max": 616.6305395464
        }
    },
    "is_potentially_hazardous_asteroid": false,
    "close_approach_data": [
        {
            "close_approach_date": "2006-02-10",
            "close_approach_date_full": "2006-Feb-10 17:19",
            "epoch_date_close_approach": 1139591940000,
            "relative_velocity": {
                "kilometers_per_second": "22.3608424238",
                "kilometers_per_hour": "80499.0327257048",
                "miles_per_hour": "50018.9684178137"
            },
            "miss_distance": {
                "astronomical": "0.0582394477",
                "lunar": "22.6551451553",
                "kilometers": "8712497.325896399",
                "miles": "5413694.8019483462"
            },
            "orbiting_body": "Earth"
        }
    ],
    "orbital_data": {
        "orbit_id": "12",
        "orbit_determination_date": "2017-04-06 09:09:07",
        "first_observation_date": "2006-02-20",
        "last_observation_date": "2006-03-05",
        "data_arc_in_days": 13,
        "observations_used": 43,
        "orbit_uncertainty": "8",
        "minimum_orbit_intersection": ".00943469",
        "jupiter_tisserand_invariant": "3.014",
        "epoch_osculation": "2453791.5",
        "eccentricity": ".7433886073117606",
        "semi_major_axis": "2.48648118703828",
        "inclination": "4.850384997113213",
        "ascending_node_longitude": "324.6034483567679",
        "orbital_period": "1432.109393475525",
        "perihelion_distance": ".6380594002989997",
        "perihelion_argument": "93.35997507836701",
        "aphelion_distance": "4.33490297377756",
        "perihelion_time": "2453733.686650870384",
        "mean_anomaly": "14.53297197929277",
        "mean_motion": ".2513774447958417",
        "equinox": "J2000",
        "orbit_class": {
            "orbit_class_type": "APO",
            "orbit_class_description": "Near-Earth asteroid orbits which cross the Earth’s orbit similar to that of 1862 Apollo",
            "orbit_class_range": "a (semi-major axis) > 1.0 AU; q (perihelion) < 1.017 AU"
        }
    },
    "is_sentry_object": false
}